ONEWEB-0229             
1 48779U 21045N   26096.87208254  .00000078  00000+0  17276-3 0  9996
2 48779  87.8940 273.4175 0001827  97.0406 263.0933 13.15550118235035
ONEWEB-0228             
1 48780U 21045P   26096.90550716 -.00000268  00000+0 -74514-3 0  9996
2 48780  87.8944 273.3979 0001843  93.7273 266.4069 13.15548589234951
ONEWEB-0232             
1 48781U 21045Q   26096.88002427  .00000013  00000+0  13205-5 0  9993
2 48781  87.8951 273.4053 0001759  94.0899 266.0432 13.15548391235275
ONEWEB-0231             
1 48782U 21045R   26096.93388271 -.00000047  00000+0 -15915-3 0  9991
2 48782  87.8929 273.4161 0001961  90.9280 269.2075 13.15548120234979
ONEWEB-0234             
1 48783U 21045S   26096.89572996 -.00000045  00000+0 -15284-3 0  9993
2 48783  87.8930 273.4015 0001378  65.7007 294.4268 13.15547791235102
ONEWEB-0238             
1 48784U 21045T   26096.89599715 -.00000286  00000+0 -79288-3 0  9993
2 48784  87.8928 273.3946 0001482  80.7442 279.3856 13.15548513235005
ONEWEB-0240             
1 48785U 21045U   26096.91691711  .00010760  00000+0  28577-1 0  9995
2 48785  87.8895 273.3989 0001398  53.3732 306.7527 13.15402035235031
ONEWEB-0246             
1 48786U 21045V   26096.91169730 -.00000084  00000+0 -25628-3 0  9993
2 48786  87.8938 273.4057 0001823  97.2281 262.9056 13.15549900234904
ONEWEB-0210             
1 48787U 21045W   26096.88634301 -.00000045  00000+0 -15232-3 0  9998
2 48787  87.8940 273.4076 0002544 105.3874 254.7538 13.15550045234949
ONEWEB-0214             
1 48788U 21045X   26096.89506367 -.00000139  00000+0 -40326-3 0  9996
2 48788  87.8939 273.4019 0002012 104.2099 255.9255 13.15549815234911
ONEWEB-0221             
1 48789U 21045Y   26096.90219118 -.00000125  00000+0 -36516-3 0  9995
2 48789  87.8938 273.4100 0001965  92.3242 267.8114 13.15547306235005
ONEWEB-0213             
1 48790U 21045Z   26096.89109183 -.00000105  00000+0 -31243-3 0  9995
2 48790  87.8939 273.4161 0002068  95.4794 264.6572 13.15546510235061
ONEWEB-0212             
1 48791U 21045AA  26096.86812517  .00000151  00000+0  36575-3 0  9997
2 48791  87.8940 273.4154 0001688  93.0745 267.0579 13.15549833235057
ONEWEB-0227             
1 48792U 21045AB  26096.86733497  .00000178  00000+0  43945-3 0  9995
2 48792  87.8939 273.4176 0001811  92.2246 267.9092 13.15549689235008
ONEWEB-0226             
1 48793U 21045AC  26096.93704744 -.00000086  00000+0 -26175-3 0  9993
2 48793  87.8930 273.4107 0002013  98.0114 262.1245 13.15548145234986
ONEWEB-0224             
1 48794U 21045AD  26096.90059707 -.00000138  00000+0 -40097-3 0  9990
2 48794  87.8928 273.4538 0002011  67.8353 292.2990 13.15546559234909
