[{"OBJECT_NAME":"ONEWEB-0229","OBJECT_ID":"2021-045N","EPOCH":"2026-04-06T20:55:47.931456","MEAN_MOTION":13.15550118,"ECCENTRICITY":0.0001827,"INCLINATION":87.894,"RA_OF_ASC_NODE":273.4175,"ARG_OF_PERICENTER":97.0406,"MEAN_ANOMALY":263.0933,"EPHEMERIS_TYPE":0,"CLASSIFICATION_TYPE":"U","NORAD_CAT_ID":48779,"ELEMENT_SET_NO":999,"REV_AT_EPOCH":23503,"BSTAR":0.00017276,"MEAN_MOTION_DOT":7.8e-07,"MEAN_MOTION_DDOT":0.0},{"OBJECT_NAME":"ONEWEB-0228","OBJECT_ID":"2021-045P","EPOCH":"2026-04-06T21:43:55.818624","MEAN_MOTION":13.15548589,"ECCENTRICITY":0.0001843,"INCLINATION":87.8944,"RA_OF_ASC_NODE":273.3979,"ARG_OF_PERICENTER":93.7273,"MEAN_ANOMALY":266.4069,"EPHEMERIS_TYPE":0,"CLASSIFICATION_TYPE":"U","NORAD_CAT_ID":48780,"ELEMENT_SET_NO":999,"REV_AT_EPOCH":23495,"BSTAR":-0.00074514,"MEAN_MOTION_DOT":-2.68e-06,"MEAN_MOTION_DDOT":0.0},{"OBJECT_NAME":"ONEWEB-0232","OBJECT_ID":"2021-045Q","EPOCH":"2026-04-06T21:07:14.096928","MEAN_MOTION":13.15548391,"ECCENTRICITY":0.0001759,"INCLINATION":87.8951,"RA_OF_ASC_NODE":273.4053,"ARG_OF_PERICENTER":94.0899,"MEAN_ANOMALY":266.0432,"EPHEMERIS_TYPE":0,"CLASSIFICATION_TYPE":"U","NORAD_CAT_ID":48781,"ELEMENT_SET_NO":999,"REV_AT_EPOCH":23527,"BSTAR":1.3205e-06,"MEAN_MOTION_DOT":1.3e-07,"MEAN_MOTION_DDOT":0.0},{"OBJECT_NAME":"ONEWEB-0231","OBJECT_ID":"2021-045R","EPOCH":"2026-04-06T22:24:47.466144","MEAN_MOTION":13.1554812,"ECCENTRICITY":0.0001961,"INCLINATION":87.8929,"RA_OF_ASC_NODE":273.4161,"ARG_OF_PERICENTER":90.928,"MEAN_ANOMALY":269.2075,"EPHEMERIS_TYPE":0,"CLASSIFICATION_TYPE":"U","NORAD_CAT_ID":48782,"ELEMENT_SET_NO":999,"REV_AT_EPOCH":23497,"BSTAR":-0.00015915000000000002,"MEAN_MOTION_DOT":-4.7e-07,"MEAN_MOTION_DDOT":0.0},{"OBJECT_NAME":"ONEWEB-0234","OBJECT_ID":"2021-045S","EPOCH":"2026-04-06T21:29:51.068544","MEAN_MOTION":13.15547791,"ECCENTRICITY":0.0001378,"INCLINATION":87.893,"RA_OF_ASC_NODE":273.4015,"ARG_OF_PERICENTER":65.7007,"MEAN_ANOMALY":294.4268,"EPHEMERIS_TYPE":0,"CLASSIFICATION_TYPE":"U","NORAD_CAT_ID":48783,"ELEMENT_SET_NO":999,"REV_AT_EPOCH":23510,"BSTAR":-0.00015284,"MEAN_MOTION_DOT":-4.5e-07,"MEAN_MOTION_DDOT":0.0},{"OBJECT_NAME":"ONEWEB-0238","OBJECT_ID":"2021-045T","EPOCH":"2026-04-06T21:30:14.153760","MEAN_MOTION":13.15548513,"ECCENTRICITY":0.0001482,"INCLINATION":87.8928,"RA_OF_ASC_NODE":273.3946,"ARG_OF_PERICENTER":80.7442,"MEAN_ANOMALY":279.3856,"EPHEMERIS_TYPE":0,"CLASSIFICATION_TYPE":"U","NORAD_CAT_ID":48784,"ELEMENT_SET_NO":999,"REV_AT_EPOCH":23500,"BSTAR":-0.00079288,"MEAN_MOTION_DOT":-2.86e-06,"MEAN_MOTION_DDOT":0.0},{"OBJECT_NAME":"ONEWEB-0240","OBJECT_ID":"2021-045U","EPOCH":"2026-04-06T22:00:21.638304","MEAN_MOTION":13.15402035,"ECCENTRICITY":0.0001398,"INCLINATION":87.8895,"RA_OF_ASC_NODE":273.3989,"ARG_OF_PERICENTER":53.3732,"MEAN_ANOMALY":306.7527,"EPHEMERIS_TYPE":0,"CLASSIFICATION_TYPE":"U","NORAD_CAT_ID":48785,"ELEMENT_SET_NO":999,"REV_AT_EPOCH":23503,"BSTAR":0.028577000000000005,"MEAN_MOTION_DOT":0.0001076,"MEAN_MOTION_DDOT":0.0},{"OBJECT_NAME":"ONEWEB-0246","OBJECT_ID":"2021-045V","EPOCH":"2026-04-06T21:52:50.646720","MEAN_MOTION":13.155499,"ECCENTRICITY":0.0001823,"INCLINATION":87.8938,"RA_OF_ASC_NODE":273.4057,"ARG_OF_PERICENTER":97.2281,"MEAN_ANOMALY":262.9056,"EPHEMERIS_TYPE":0,"CLASSIFICATION_TYPE":"U","NORAD_CAT_ID":48786,"ELEMENT_SET_NO":999,"REV_AT_EPOCH":23490,"BSTAR":-0.00025628,"MEAN_MOTION_DOT":-8.4e-07,"MEAN_MOTION_DDOT":0.0},{"OBJECT_NAME":"ONEWEB-0210","OBJECT_ID":"2021-045W","EPOCH":"2026-04-06T21:16:20.036064","MEAN_MOTION":13.15550045,"ECCENTRICITY":0.0002544,"INCLINATION":87.894,"RA_OF_ASC_NODE":273.4076,"ARG_OF_PERICENTER":105.3874,"MEAN_ANOMALY":254.7538,"EPHEMERIS_TYPE":0,"CLASSIFICATION_TYPE":"U","NORAD_CAT_ID":48787,"ELEMENT_SET_NO":999,"REV_AT_EPOCH":23494,"BSTAR":-0.00015232,"MEAN_MOTION_DOT":-4.5e-07,"MEAN_MOTION_DDOT":0.0},{"OBJECT_NAME":"ONEWEB-0214","OBJECT_ID":"2021-045X","EPOCH":"2026-04-06T21:28:53.501088","MEAN_MOTION":13.15549815,"ECCENTRICITY":0.0002012,"INCLINATION":87.8939,"RA_OF_ASC_NODE":273.4019,"ARG_OF_PERICENTER":104.2099,"MEAN_ANOMALY":255.9255,"EPHEMERIS_TYPE":0,"CLASSIFICATION_TYPE":"U","NORAD_CAT_ID":48788,"ELEMENT_SET_NO":999,"REV_AT_EPOCH":23491,"BSTAR":-0.00040326,"MEAN_MOTION_DOT":-1.39e-06,"MEAN_MOTION_DDOT":0.0},{"OBJECT_NAME":"ONEWEB-0221","OBJECT_ID":"2021-045Y","EPOCH":"2026-04-06T21:39:09.317952","MEAN_MOTION":13.15547306,"ECCENTRICITY":0.0001965,"INCLINATION":87.8938,"RA_OF_ASC_NODE":273.41,"ARG_OF_PERICENTER":92.3242,"MEAN_ANOMALY":267.8114,"EPHEMERIS_TYPE":0,"CLASSIFICATION_TYPE":"U","NORAD_CAT_ID":48789,"ELEMENT_SET_NO":999,"REV_AT_EPOCH":23500,"BSTAR":-0.00036516,"MEAN_MOTION_DOT":-1.25e-06,"MEAN_MOTION_DDOT":0.0},{"OBJECT_NAME":"ONEWEB-0213","OBJECT_ID":"2021-045Z","EPOCH":"2026-04-06T21:23:10.334112","MEAN_MOTION":13.1554651,"ECCENTRICITY":0.0002068,"INCLINATION":87.8939,"RA_OF_ASC_NODE":273.4161,"ARG_OF_PERICENTER":95.4794,"MEAN_ANOMALY":264.6572,"EPHEMERIS_TYPE":0,"CLASSIFICATION_TYPE":"U","NORAD_CAT_ID":48790,"ELEMENT_SET_NO":999,"REV_AT_EPOCH":23506,"BSTAR":-0.00031243,"MEAN_MOTION_DOT":-1.05e-06,"MEAN_MOTION_DDOT":0.0},{"OBJECT_NAME":"ONEWEB-0212","OBJECT_ID":"2021-045AA","EPOCH":"2026-04-06T20:50:06.014688","MEAN_MOTION":13.15549833,"ECCENTRICITY":0.0001688,"INCLINATION":87.894,"RA_OF_ASC_NODE":273.4154,"ARG_OF_PERICENTER":93.0745,"MEAN_ANOMALY":267.0579,"EPHEMERIS_TYPE":0,"CLASSIFICATION_TYPE":"U","NORAD_CAT_ID":48791,"ELEMENT_SET_NO":999,"REV_AT_EPOCH":23505,"BSTAR":0.00036575,"MEAN_MOTION_DOT":1.51e-06,"MEAN_MOTION_DDOT":0.0},{"OBJECT_NAME":"ONEWEB-0227","OBJECT_ID":"2021-045AB","EPOCH":"2026-04-06T20:48:57.741408","MEAN_MOTION":13.15549689,"ECCENTRICITY":0.0001811,"INCLINATION":87.8939,"RA_OF_ASC_NODE":273.4176,"ARG_OF_PERICENTER":92.2246,"MEAN_ANOMALY":267.9092,"EPHEMERIS_TYPE":0,"CLASSIFICATION_TYPE":"U","NORAD_CAT_ID":48792,"ELEMENT_SET_NO":999,"REV_AT_EPOCH":23500,"BSTAR":0.00043945000000000003,"MEAN_MOTION_DOT":1.78e-06,"MEAN_MOTION_DDOT":0.0},{"OBJECT_NAME":"ONEWEB-0226","OBJECT_ID":"2021-045AC","EPOCH":"2026-04-06T22:29:20.898816","MEAN_MOTION":13.15548145,"ECCENTRICITY":0.0002013,"INCLINATION":87.893,"RA_OF_ASC_NODE":273.4107,"ARG_OF_PERICENTER":98.0114,"MEAN_ANOMALY":262.1245,"EPHEMERIS_TYPE":0,"CLASSIFICATION_TYPE":"U","NORAD_CAT_ID":48793,"ELEMENT_SET_NO":999,"REV_AT_EPOCH":23498,"BSTAR":-0.00026175,"MEAN_MOTION_DOT":-8.6e-07,"MEAN_MOTION_DDOT":0.0},{"OBJECT_NAME":"ONEWEB-0224","OBJECT_ID":"2021-045AD","EPOCH":"2026-04-06T21:36:51.586848","MEAN_MOTION":13.15546559,"ECCENTRICITY":0.0002011,"INCLINATION":87.8928,"RA_OF_ASC_NODE":273.4538,"ARG_OF_PERICENTER":67.8353,"MEAN_ANOMALY":292.299,"EPHEMERIS_TYPE":0,"CLASSIFICATION_TYPE":"U","NORAD_CAT_ID":48794,"ELEMENT_SET_NO":999,"REV_AT_EPOCH":23490,"BSTAR":-0.00040097,"MEAN_MOTION_DOT":-1.38e-06,"MEAN_MOTION_DDOT":0.0}]